[{"OBJECT_NAME":"TEVEL2-9","OBJECT_ID":"2025-052AD","EPOCH":"2026-03-09T16:51:18.321696","MEAN_MOTION":15.28633834,"ECCENTRICITY":0.000799,"INCLINATION":97.4057,"RA_OF_ASC_NODE":324.3929,"ARG_OF_PERICENTER":124.2475,"MEAN_ANOMALY":235.9522,"EPHEMERIS_TYPE":0,"CLASSIFICATION_TYPE":"U","NORAD_CAT_ID":63237,"ELEMENT_SET_NO":999,"REV_AT_EPOCH":5481,"BSTAR":0.00067240159,"MEAN_MOTION_DOT":0.00018694,"MEAN_MOTION_DDOT":0},{"OBJECT_NAME":"STARLINK-35868","OBJECT_ID":"2025-268Y","EPOCH":"2026-03-09T04:27:09.131040","MEAN_MOTION":15.27589789,"ECCENTRICITY":0.00030314,"INCLINATION":43.0033,"RA_OF_ASC_NODE":349.8208,"ARG_OF_PERICENTER":249.1192,"MEAN_ANOMALY":110.9336,"EPHEMERIS_TYPE":0,"CLASSIFICATION_TYPE":"U","NORAD_CAT_ID":66579,"ELEMENT_SET_NO":999,"REV_AT_EPOCH":1788,"BSTAR":0.0010188969,"MEAN_MOTION_DOT":0.00027892,"MEAN_MOTION_DDOT":0}]
